{
  "type": "FeatureCollection",
  "features": [
    {
      "type": "Feature",
      "properties": {
        "norad_id": 31826,
        "name": "FENGYUN 1C DEB",
        "group": "fengyun-1c-debris",
        "lat": 81.19496176652758,
        "lon": -132.82656079424913,
        "alt_km": 870.7897551270562,
        "timestamp": "2025-12-03T06:58:43.522176+00:00",
        "meta_object_name": "FENGYUN 1C DEB",
        "meta_object_id": "1999-025CHQ",
        "meta_epoch": "2025-12-01T11:16:10.269984",
        "meta_mean_motion": 14.19245438,
        "meta_eccentricity": 0.01235722,
        "meta_inclination": 98.6258,
        "meta_ra_of_asc_node": 326.8919,
        "meta_arg_of_pericenter": 222.0054,
        "meta_mean_anomaly": 291.027,
        "meta_ephemeris_type": 0,
        "meta_classification_type": "U",
        "meta_norad_cat_id": 31826,
        "meta_element_set_no": 999,
        "meta_rev_at_epoch": 95654,
        "meta_bstar": 0.00042487612,
        "meta_mean_motion_dot": 9.18e-06,
        "meta_mean_motion_ddot": 0,
        "tle_line1": "1 31826U 99025CHQ 25335.46956331  .00000918  00000+0  42488-3 0  9996",
        "tle_line2": "2 31826  98.6258 326.8919 0123572 222.0054 291.0270 14.19245438956544"
      },
      "geometry": {
        "type": "Point",
        "coordinates": [
          -132.82656079424913,
          81.19496176652758
        ]
      }
    },
    {
      "type": "Feature",
      "properties": {
        "norad_id": 31829,
        "name": "FENGYUN 1C DEB",
        "group": "fengyun-1c-debris",
        "lat": -61.46094447572159,
        "lon": -49.01296230953854,
        "alt_km": 863.9621141021244,
        "timestamp": "2025-12-03T06:58:43.522186+00:00",
        "meta_object_name": "FENGYUN 1C DEB",
        "meta_object_id": "1999-025CHT",
        "meta_epoch": "2025-12-02T10:56:07.011744",
        "meta_mean_motion": 13.88661879,
        "meta_eccentricity": 0.01689095,
        "meta_inclination": 98.8355,
        "meta_ra_of_asc_node": 146.814,
        "meta_arg_of_pericenter": 192.463,
        "meta_mean_anomaly": 195.9423,
        "meta_ephemeris_type": 0,
        "meta_classification_type": "U",
        "meta_norad_cat_id": 31829,
        "meta_element_set_no": 999,
        "meta_rev_at_epoch": 94005,
        "meta_bstar": 0.00060854839,
        "meta_mean_motion_dot": 7.8e-06,
        "meta_mean_motion_ddot": 0,
        "tle_line1": "1 31829U 99025CHT 25336.45563671  .00000780  00000+0  60855-3 0  9995",
        "tle_line2": "2 31829  98.8355 146.8140 0168909 192.4630 195.9423 13.88661879940053"
      },
      "geometry": {
        "type": "Point",
        "coordinates": [
          -49.01296230953854,
          -61.46094447572159
        ]
      }
    },
    {
      "type": "Feature",
      "properties": {
        "norad_id": 31830,
        "name": "FENGYUN 1C DEB",
        "group": "fengyun-1c-debris",
        "lat": 68.85362129825882,
        "lon": 58.55078618862405,
        "alt_km": 944.6827943311037,
        "timestamp": "2025-12-03T06:58:43.522196+00:00",
        "meta_object_name": "FENGYUN 1C DEB",
        "meta_object_id": "1999-025CHU",
        "meta_epoch": "2025-12-02T06:36:37.177056",
        "meta_mean_motion": 13.83353348,
        "meta_eccentricity": 0.0181639,
        "meta_inclination": 99.1637,
        "meta_ra_of_asc_node": 82.2262,
        "meta_arg_of_pericenter": 342.8195,
        "meta_mean_anomaly": 72.1801,
        "meta_ephemeris_type": 0,
        "meta_classification_type": "U",
        "meta_norad_cat_id": 31830,
        "meta_element_set_no": 999,
        "meta_rev_at_epoch": 92595,
        "meta_bstar": 0.0020067,
        "meta_mean_motion_dot": 2.461e-05,
        "meta_mean_motion_ddot": 0,
        "tle_line1": "1 31830U 99025CHU 25336.27543029  .00002461  00000+0  20067-2 0  9990",
        "tle_line2": "2 31830  99.1637  82.2262 0181639 342.8195  72.1801 13.83353348925954"
      },
      "geometry": {
        "type": "Point",
        "coordinates": [
          58.55078618862405,
          68.85362129825882
        ]
      }
    },
    {
      "type": "Feature",
      "properties": {
        "norad_id": 31834,
        "name": "FENGYUN 1C DEB",
        "group": "fengyun-1c-debris",
        "lat": -80.70022991692525,
        "lon": -45.79013351567828,
        "alt_km": 1002.1819447986354,
        "timestamp": "2025-12-03T06:58:43.522207+00:00",
        "meta_object_name": "FENGYUN 1C DEB",
        "meta_object_id": "1999-025CHY",
        "meta_epoch": "2025-12-01T10:56:27.803040",
        "meta_mean_motion": 14.03138686,
        "meta_eccentricity": 0.01625021,
        "meta_inclination": 98.3697,
        "meta_ra_of_asc_node": 196.5527,
        "meta_arg_of_pericenter": 109.357,
        "meta_mean_anomaly": 252.5247,
        "meta_ephemeris_type": 0,
        "meta_classification_type": "U",
        "meta_norad_cat_id": 31834,
        "meta_element_set_no": 999,
        "meta_rev_at_epoch": 63552,
        "meta_bstar": 0.00025145336,
        "meta_mean_motion_dot": 4.02e-06,
        "meta_mean_motion_ddot": 0,
        "tle_line1": "1 31834U 99025CHY 25335.45587735  .00000402  00000+0  25145-3 0  9991",
        "tle_line2": "2 31834  98.3697 196.5527 0162502 109.3570 252.5247 14.03138686635527"
      },
      "geometry": {
        "type": "Point",
        "coordinates": [
          -45.79013351567828,
          -80.70022991692525
        ]
      }
    },
    {
      "type": "Feature",
      "properties": {
        "norad_id": 31837,
        "name": "FENGYUN 1C DEB",
        "group": "fengyun-1c-debris",
        "lat": 8.262084607856654,
        "lon": 51.531055147961716,
        "alt_km": 573.8588216006683,
        "timestamp": "2025-12-03T06:58:43.522217+00:00",
        "meta_object_name": "FENGYUN 1C DEB",
        "meta_object_id": "1999-025CJB",
        "meta_epoch": "2025-12-02T11:29:46.361184",
        "meta_mean_motion": 14.81941802,
        "meta_eccentricity": 0.00948496,
        "meta_inclination": 98.1019,
        "meta_ra_of_asc_node": 51.8949,
        "meta_arg_of_pericenter": 51.0437,
        "meta_mean_anomaly": 309.918,
        "meta_ephemeris_type": 0,
        "meta_classification_type": "U",
        "meta_norad_cat_id": 31837,
        "meta_element_set_no": 999,
        "meta_rev_at_epoch": 98207,
        "meta_bstar": 0.0012645817,
        "meta_mean_motion_dot": 0.00010787,
        "meta_mean_motion_ddot": 0,
        "tle_line1": "1 31837U 99025CJB 25336.47900881  .00010787  00000+0  12646-2 0  9996",
        "tle_line2": "2 31837  98.1019  51.8949 0094849  51.0437 309.9180 14.81941802982076"
      },
      "geometry": {
        "type": "Point",
        "coordinates": [
          51.531055147961716,
          8.262084607856654
        ]
      }
    },
    {
      "type": "Feature",
      "properties": {
        "norad_id": 31838,
        "name": "FENGYUN 1C DEB",
        "group": "fengyun-1c-debris",
        "lat": 14.210765121915601,
        "lon": -149.6661595420888,
        "alt_km": 802.1874172056887,
        "timestamp": "2025-12-03T06:58:43.522227+00:00",
        "meta_object_name": "FENGYUN 1C DEB",
        "meta_object_id": "1999-025CJC",
        "meta_epoch": "2025-11-30T23:01:09.079104",
        "meta_mean_motion": 14.21077351,
        "meta_eccentricity": 0.00389588,
        "meta_inclination": 98.7199,
        "meta_ra_of_asc_node": 25.8052,
        "meta_arg_of_pericenter": 128.7083,
        "meta_mean_anomaly": 354.7559,
        "meta_ephemeris_type": 0,
        "meta_classification_type": "U",
        "meta_norad_cat_id": 31838,
        "meta_element_set_no": 999,
        "meta_rev_at_epoch": 64409,
        "meta_bstar": 0.00075198552,
        "meta_mean_motion_dot": 1.602e-05,
        "meta_mean_motion_ddot": 0,
        "tle_line1": "1 31838U 99025CJC 25334.95913286  .00001602  00000+0  75199-3 0  9990",
        "tle_line2": "2 31838  98.7199  25.8052 0038958 128.7083 354.7559 14.21077351644094"
      },
      "geometry": {
        "type": "Point",
        "coordinates": [
          -149.6661595420888,
          14.210765121915601
        ]
      }
    },
    {
      "type": "Feature",
      "properties": {
        "norad_id": 31841,
        "name": "FENGYUN 1C DEB",
        "group": "fengyun-1c-debris",
        "lat": -78.1874693048271,
        "lon": -168.21824679593266,
        "alt_km": 752.669789370686,
        "timestamp": "2025-12-03T06:58:43.522238+00:00",
        "meta_object_name": "FENGYUN 1C DEB",
        "meta_object_id": "1999-025CJF",
        "meta_epoch": "2025-11-17T05:28:34.898880",
        "meta_mean_motion": 14.03357121,
        "meta_eccentricity": 0.0309007,
        "meta_inclination": 98.418,
        "meta_ra_of_asc_node": 131.8088,
        "meta_arg_of_pericenter": 17.7285,
        "meta_mean_anomaly": 155.1599,
        "meta_ephemeris_type": 0,
        "meta_classification_type": "U",
        "meta_norad_cat_id": 31841,
        "meta_element_set_no": 999,
        "meta_rev_at_epoch": 58981,
        "meta_bstar": 0.0018537015,
        "meta_mean_motion_dot": 4.385e-05,
        "meta_mean_motion_ddot": 0,
        "tle_line1": "1 31841U 99025CJF 25321.22818170  .00004385  00000+0  18537-2 0  9999",
        "tle_line2": "2 31841  98.4180 131.8088 0309007  17.7285 155.1599 14.03357121589810"
      },
      "geometry": {
        "type": "Point",
        "coordinates": [
          -168.21824679593266,
          -78.1874693048271
        ]
      }
    }
  ]
}